#dP2018  5 20  0  0  0.00000000      96 __u+U ITR00 FIT  IAC
## 2002      0.00000000   900.00000000 58258 0.0000000000000
+   87   C01C02C03C04C05C06C07C08C09C10C11C12C13C14E01E02E03
+        E04E05E07E08E09E12E14E18E19E24E26E30G01G02G03G04G05
+        G06G07G08G09G10G11G12G13G14G15G16G17G18G19G20G21G22
+        G23G24G25G26G27G28G29G30G31G32J01J02J03R01R02R03R04
+        R05R07R08R09R10R11R13R14R15R16R17R18R19R20R21R22R23
+        R24R26  0  0  0  0  0  0  0  0  0  0  0  0  0  0  0
++         0  0  0  0  0  0  0  0  0  0  0  0  0  0  0  0  0
++         0  0  0  0  0  0  0  0  0  0  0  0  0  0  0  0  0
++         0  0  0  0  0  0  0  0  0  0  0  0  0  0  0  0  0
++         0  0  0  0  0  0  0  0  0  0  0  0  0  0  0  0  0
++         0  0  0  0  0  0  0  0  0  0  0  0  0  0  0  0  0
++         0  0  0  0  0  0  0  0  0  0  0  0  0  0  0  0  0
%c M  cc GPS ccc cccc cccc cccc cccc ccccc ccccc ccccc ccccc
%c cc cc ccc ccc cccc cccc cccc cccc ccccc ccccc ccccc ccccc
%f  0.0000000  0.000000000  0.00000000000  0.000000000000000
%f  0.0000000  0.000000000  0.00000000000  0.000000000000000
%i    0    0    0    0      0      0      0      0         0
%i    0    0    0    0      0      0      0      0         0
/*                                                          
/*   RSA / INFORMATION & ANALYSIS CENTER (IAC) OF MCC       
/*   ULTRA-RAPID DETERMINATION                              
/* PCV:IGS14_2000 OL/AL:FES2004  NONE     YN ORB:CoN CLK:CoN
*  2018 05 20  2  0  0.00000000
PC01 -32275.352646  27125.628145    813.142956   -276.206255
PC02   4382.160430  41913.618181  -1314.602533    423.683949
PC03 -14834.495143  39425.181148     52.021623   -318.672722
PC04 -39632.114523  14410.169630    196.749312   -252.587555
PC05  21911.950169  35994.148884  -1004.706700    415.378686
PC06 -15206.134614  38015.892192  -9048.692282     24.631087
PC07  -9860.959919  24533.098887  33007.001021    142.912639
PC08 -25688.904777  23786.157839 -23592.716010    347.710787
PC09  -6102.634369  41038.493046   6618.557379   -114.087965
PC10   6125.042856  31788.843993  27305.328266   -244.912731
PC11  -6567.454311  21689.544778 -16275.652643   -514.904884
PC12 -20189.754204  19299.292234   1175.202722    448.707280
PC13 -10938.736573  26066.009945 -31340.396028   -338.974887
PC14   1944.461740  26730.562095  -7612.653465    334.892930
PE01  23682.056316   2632.293753 -17572.111385   -348.657787
PE02 -23667.900011  -2616.694585  17578.449805     14.010925
PE03 -17191.898609   6476.897927 -23201.152349    -33.989122
PE04  10799.293265 -24893.744211  11842.472717    -37.744724
PE05 -13539.780894 -15833.933304 -21018.193862    262.163686
PE07   1994.105996  28800.095339   6566.958695     30.085549
PE08 -10477.466638  25005.735496 -11878.315240   6581.311457
PE09  -2177.586572 -28782.488085  -6516.279344   6787.225194
PE12  19584.695080 -18453.311498  12367.405612   4194.946458
PE14  11992.069972  17426.885586 -23756.948567   6580.335075
PE18  -2180.999225 -19271.410403  15289.748654   6195.756895
PE19  17146.823581  -4402.892465  23734.364555     22.456943
PE24 -10685.323734 -21496.914562 -17340.812373   6697.762815
PE26  19583.688482   6664.915957 -21169.689045   5918.384312
PE30  -9170.830443  13382.277739  24744.593433   5826.780671
PG01  12306.046584  13356.037586 -19632.041384    -49.204526
PG02  11974.821692 -14533.737644  19197.742787    110.436119
PG03  13040.853874  23166.032022   -760.961778     73.653424
PG04 -13950.657254   5049.071465  21794.122242     61.903810
PG05   2548.298360 -19693.401817  17436.186159     -7.630263
PG06  23888.448005  -6797.906400   9483.384700    402.270162
PG07  24660.570968   6246.257553   8625.217467    189.052197
PG08  -2435.243012  22945.893108 -12967.020310   -101.854698
PG09  13976.604588   6462.278720  21611.163753    514.000160
PG10 -16845.565010   -259.637653 -20525.516450    185.529369
PG11   7472.851046  14900.243671 -21234.854145   -735.933606
PG12  -9511.809810 -24610.462063  -4042.615806    332.669975
PG13  11491.893218 -23104.873587  -6402.204147    -94.317019
PG14      0.000000      0.000000      0.000000 999999.999999
PG15   -926.662850 -22638.576916 -13757.503641   -353.973056
PG16  -4187.488197  18696.508200  18045.200946     24.257367
PG17  18690.381572 -11167.217792 -14738.165357    -96.404922
PG18   2748.289559  15512.791520 -21850.820601     11.190770
PG19  18978.407430 -16549.559205  -9025.976595   -435.035020
PG20 -20077.019606 -14481.737383  -9890.752218    508.574362
PG21 -25747.184765  -3164.538933   6451.727492   -392.820019
PG22   7980.371472  23689.785056  -8750.035153   -397.552372
PG23   5588.831074  18098.650941  18735.776587   -216.889051
PG24  -8696.579912 -14562.293602 -20616.818833    -49.963645
PG25 -17433.041266 -18179.881858   8612.233953   -587.776402
PG26 -11429.354885  10473.658362  21544.834112   -143.570257
PG27 -11996.376432  23493.630361  -1484.313077    368.663773
PG28  16650.168823   4884.928847 -19475.304505    716.667134
PG29 -11174.845876  -9695.230202  22037.404731    447.076455
PG30  26624.315054    263.052224  -1165.819934     72.213875
PG31 -23360.254578   7141.984039  10961.867069    120.462314
PG32 -18529.700547  10815.520995 -15562.989333   -507.100927
PJ01 -19482.352801  24209.758604 -23859.551218   -254.503442
PJ02 -27991.809910  21295.762456  27929.840572    -22.241414
PJ03 -31216.608556  26467.200632  15133.601335 999999.999999
PR01  -1873.560420 -25401.893826   1221.963355     26.473104
PR02  -9437.265777 -16485.320615 -17006.770379    310.604352
PR03 -10831.274103   2055.145597 -22956.288564    132.665085
PR04  -5594.781861  19705.635338 -15168.829647    261.593554
PR05   2834.790741  25346.914627    692.822737    -11.091018
PR07  10804.135049  -2603.914199  23001.013230    -37.989312
PR08   5950.847629 -19210.536217  15749.768442     23.103513
PR09  21584.626501  12896.890494   4511.079347     27.353754
PR10  21865.986055   4235.057020 -12536.191379     24.706436
PR11   9267.006801  -7494.642293 -22549.081082    -29.219946
PR13 -21852.080191 -12396.590991  -4412.112256    -10.580991
PR14 -21963.982109  -4121.583034  12291.714354     27.403614
PR15 -12771.189029   4837.437893  21568.486268    -10.408717
PR16   8042.677298  14013.910493  19672.482362     92.932946
PR17 -21252.103543   8027.105638  11635.474450    133.748863
PR18 -19134.282863  15983.547167  -5209.283144    196.198731
PR19  -6675.541647  14952.887556 -19555.546970    -52.819534
PR20  11200.783812   4762.183991 -22420.081814   -338.582828
PR21  21274.412966  -8280.699178 -11363.199660     15.731020
PR22  18273.315191 -16385.564178   7200.198144    -44.296895
PR23   2848.156512 -13668.575306  21341.796302    154.667238
PR24 -11982.360952  -3989.180724  22132.665383   -166.506571
PR26  10671.575264   5124.475111 -22581.004149     20.623350
EOF
